COSMOS 2476 [GLONASS-M] 
1 37867U 11064A   25123.43166782  .00000027  00000+0  00000+0 0  9990
2 37867  65.0422  86.7288 0023866 241.9820 212.2280  2.13101495105034
COSMOS 2477 [GLONASS-M] 
1 37868U 11064B   25123.82233825  .00000028  00000+0  00000+0 0  9998
2 37868  65.0492  86.7911 0021058 243.6604 330.0050  2.13102998105038
COSMOS 2475 [GLONASS-M] 
1 37869U 11064C   25123.83470667  .00000028  00000+0  00000+0 0  9997
2 37869  65.0562  86.8086 0026685 256.2066 283.8814  2.13101795105042
COSMOS 2485 [GLONASS-M] 
1 39155U 13019A   25123.24835486  .00000028  00000+0  00000+0 0  9998
2 39155  65.1966  87.3852 0024149 237.8625 121.8804  2.13104492 93545
COSMOS 2492 [GLONASS-M] 
1 39620U 14012A   25123.20534803 -.00000049  00000+0  00000+0 0  9998
2 39620  65.5272 327.8375 0011946 330.5183  29.4425  2.13103208 86503
COSMOS 2500 [GLONASS-M] 
1 40001U 14032A   25123.38046709 -.00000048  00000+0  00000+0 0  9996
2 40001  65.4633 327.6115 0005380 185.0119 175.0106  2.13105985 84725
COSMOS 2501 [GLONASS-K] 
1 40315U 14075A   25121.76028578  .00000007  00000+0  00000+0 0  9999
2 40315  63.6141 204.6186 0021010 209.2064 150.7317  2.13101373 81082
COSMOS 2514 [GLONASS-M] 
1 41330U 16008A   25123.15159670 -.00000048  00000+0  00000+0 0  9994
2 41330  65.2556 327.0475 0009024 201.1601 158.8295  2.13102652 71880
