[
    {
        "OBJECT_NAME": "COSMOS 2476 [GLONASS-M]",
        "OBJECT_ID": "2011-064A",
        "EPOCH": "2025-05-03T10:21:36.099648",
        "MEAN_MOTION": 2.13101495,
        "ECCENTRICITY": 0.0023866,
        "INCLINATION": 65.0422,
        "RA_OF_ASC_NODE": 86.7288,
        "ARG_OF_PERICENTER": 241.982,
        "MEAN_ANOMALY": 212.228,
        "EPHEMERIS_TYPE": 0,
        "CLASSIFICATION_TYPE": "U",
        "NORAD_CAT_ID": 37867,
        "ELEMENT_SET_NO": 999,
        "REV_AT_EPOCH": 10503,
        "BSTAR": 0,
        "MEAN_MOTION_DOT": 2.7e-07,
        "MEAN_MOTION_DDOT": 0
    },
    {
        "OBJECT_NAME": "COSMOS 2477 [GLONASS-M]",
        "OBJECT_ID": "2011-064B",
        "EPOCH": "2025-05-03T19:44:10.024800",
        "MEAN_MOTION": 2.13102998,
        "ECCENTRICITY": 0.0021058,
        "INCLINATION": 65.0492,
        "RA_OF_ASC_NODE": 86.7911,
        "ARG_OF_PERICENTER": 243.6604,
        "MEAN_ANOMALY": 330.005,
        "EPHEMERIS_TYPE": 0,
        "CLASSIFICATION_TYPE": "U",
        "NORAD_CAT_ID": 37868,
        "ELEMENT_SET_NO": 999,
        "REV_AT_EPOCH": 10503,
        "BSTAR": 0,
        "MEAN_MOTION_DOT": 2.8e-07,
        "MEAN_MOTION_DDOT": 0
    },
    {
        "OBJECT_NAME": "COSMOS 2475 [GLONASS-M]",
        "OBJECT_ID": "2011-064C",
        "EPOCH": "2025-05-03T20:01:58.656288",
        "MEAN_MOTION": 2.13101795,
        "ECCENTRICITY": 0.0026685,
        "INCLINATION": 65.0562,
        "RA_OF_ASC_NODE": 86.8086,
        "ARG_OF_PERICENTER": 256.2066,
        "MEAN_ANOMALY": 283.8814,
        "EPHEMERIS_TYPE": 0,
        "CLASSIFICATION_TYPE": "U",
        "NORAD_CAT_ID": 37869,
        "ELEMENT_SET_NO": 999,
        "REV_AT_EPOCH": 10504,
        "BSTAR": 0,
        "MEAN_MOTION_DOT": 2.8e-07,
        "MEAN_MOTION_DDOT": 0
    },
    {
        "OBJECT_NAME": "COSMOS 2485 [GLONASS-M]",
        "OBJECT_ID": "2013-019A",
        "EPOCH": "2025-05-03T05:57:37.859904",
        "MEAN_MOTION": 2.13104492,
        "ECCENTRICITY": 0.0024149,
        "INCLINATION": 65.1966,
        "RA_OF_ASC_NODE": 87.3852,
        "ARG_OF_PERICENTER": 237.8625,
        "MEAN_ANOMALY": 121.8804,
        "EPHEMERIS_TYPE": 0,
        "CLASSIFICATION_TYPE": "U",
        "NORAD_CAT_ID": 39155,
        "ELEMENT_SET_NO": 999,
        "REV_AT_EPOCH": 9354,
        "BSTAR": 0,
        "MEAN_MOTION_DOT": 2.8e-07,
        "MEAN_MOTION_DDOT": 0
    },
    {
        "OBJECT_NAME": "COSMOS 2492 [GLONASS-M]",
        "OBJECT_ID": "2014-012A",
        "EPOCH": "2025-05-03T04:55:42.069792",
        "MEAN_MOTION": 2.13103208,
        "ECCENTRICITY": 0.0011946,
        "INCLINATION": 65.5272,
        "RA_OF_ASC_NODE": 327.8375,
        "ARG_OF_PERICENTER": 330.5183,
        "MEAN_ANOMALY": 29.4425,
        "EPHEMERIS_TYPE": 0,
        "CLASSIFICATION_TYPE": "U",
        "NORAD_CAT_ID": 39620,
        "ELEMENT_SET_NO": 999,
        "REV_AT_EPOCH": 8650,
        "BSTAR": 0,
        "MEAN_MOTION_DOT": -4.9e-07,
        "MEAN_MOTION_DDOT": 0
    },
    {
        "OBJECT_NAME": "COSMOS 2500 [GLONASS-M]",
        "OBJECT_ID": "2014-032A",
        "EPOCH": "2025-05-03T09:07:52.356576",
        "MEAN_MOTION": 2.13105985,
        "ECCENTRICITY": 0.000538,
        "INCLINATION": 65.4633,
        "RA_OF_ASC_NODE": 327.6115,
        "ARG_OF_PERICENTER": 185.0119,
        "MEAN_ANOMALY": 175.0106,
        "EPHEMERIS_TYPE": 0,
        "CLASSIFICATION_TYPE": "U",
        "NORAD_CAT_ID": 40001,
        "ELEMENT_SET_NO": 999,
        "REV_AT_EPOCH": 8472,
        "BSTAR": 0,
        "MEAN_MOTION_DOT": -4.8e-07,
        "MEAN_MOTION_DDOT": 0
    },
    {
        "OBJECT_NAME": "COSMOS 2501 [GLONASS-K]",
        "OBJECT_ID": "2014-075A",
        "EPOCH": "2025-05-01T18:14:48.691392",
        "MEAN_MOTION": 2.13101373,
        "ECCENTRICITY": 0.002101,
        "INCLINATION": 63.6141,
        "RA_OF_ASC_NODE": 204.6186,
        "ARG_OF_PERICENTER": 209.2064,
        "MEAN_ANOMALY": 150.7317,
        "EPHEMERIS_TYPE": 0,
        "CLASSIFICATION_TYPE": "U",
        "NORAD_CAT_ID": 40315,
        "ELEMENT_SET_NO": 999,
        "REV_AT_EPOCH": 8108,
        "BSTAR": 0,
        "MEAN_MOTION_DOT": 7e-08,
        "MEAN_MOTION_DDOT": 0
    },
    {
        "OBJECT_NAME": "COSMOS 2514 [GLONASS-M]",
        "OBJECT_ID": "2016-008A",
        "EPOCH": "2025-05-03T03:38:17.954880",
        "MEAN_MOTION": 2.13102652,
        "ECCENTRICITY": 0.0009024,
        "INCLINATION": 65.2556,
        "RA_OF_ASC_NODE": 327.0475,
        "ARG_OF_PERICENTER": 201.1601,
        "MEAN_ANOMALY": 158.8295,
        "EPHEMERIS_TYPE": 0,
        "CLASSIFICATION_TYPE": "U",
        "NORAD_CAT_ID": 41330,
        "ELEMENT_SET_NO": 999,
        "REV_AT_EPOCH": 7188,
        "BSTAR": 0,
        "MEAN_MOTION_DOT": -4.8e-07,
        "MEAN_MOTION_DDOT": 0
    }
]